IRIDIUM 166             
1 43570U 18061B   24057.95646398 -.00000029  00000+0 -17326-4 0  9998
2 43570  86.3940  48.2838 0002126  98.5595 261.5842 14.34217382292822
IRIDIUM 158             
1 43571U 18061C   24057.92475065 -.00000009  00000+0 -10242-4 0  9995
2 43571  86.3939  48.3062 0002320  91.2617 268.8845 14.34217718292783
IRIDIUM 165             
1 43572U 18061D   24057.95012201  .00000006  00000+0 -50412-5 0  9998
2 43572  86.3944  48.3256 0002485  91.8078 268.3402 14.34217722292817
IRIDIUM 155             
1 43573U 18061E   24057.91206600 -.00000023  00000+0 -15428-4 0  9990
2 43573  86.3937  48.2525 0001879  91.3389 268.8022 14.34217057292773
IRIDIUM 154             
1 43574U 18061F   24057.96280658 -.00000023  00000+0 -15298-4 0  9996
2 43574  86.3940  48.3235 0002159  82.3949 277.7492 14.34217286292832
IRIDIUM 163             
1 43575U 18061G   24057.94377848  .00000037  00000+0  61860-5 0  9993
2 43575  86.3942  48.2729 0002173  85.7189 274.4255 14.34217720292802
IRIDIUM 156             
1 43576U 18061H   24057.91840703  .00000133  00000+0  40353-4 0  9996
2 43576  86.3942  48.2897 0002296  93.5362 266.6096 14.34218545292795
IRIDIUM 164             
1 43577U 18061J   24057.89938163  .00000009  00000+0 -36847-5 0  9999
2 43577  86.3944  48.3249 0002448  88.5858 271.5618 14.34217425292839
